{
  "norad_id": 46070,
  "name": "STARLINK-1536",
  "history": [
    {
      "epoch": "2026-03-28T22:00:01.999584",
      "apogee_km": 540.4100865896826,
      "perigee_km": 538.5186760200058,
      "latitude_deg": 43.718879567320464,
      "longitude_deg": -44.997778240125626,
      "semi_major_axis_km": 6917.601381304844,
      "eccentricity": 0.00013671,
      "inclination_deg": 53.0575,
      "raan_deg": 10.2946,
      "arg_perigee_deg": 120.3719,
      "mean_anomaly_deg": 204.4042,
      "mean_motion_rev_day": 15.08931285
    },
    {
      "epoch": "2026-03-29T06:00:02.998944",
      "apogee_km": 538.5746506179903,
      "perigee_km": 537.6395744139782,
      "latitude_deg": 49.889531922699476,
      "longitude_deg": -12.996667840052396,
      "semi_major_axis_km": 6916.244112515984,
      "eccentricity": 6.76e-05,
      "inclination_deg": 53.0571,
      "raan_deg": 8.7935,
      "arg_perigee_deg": 82.6771,
      "mean_anomaly_deg": 253.4942,
      "mean_motion_rev_day": 15.09375484
    }
  ]
}